{
  "norad_id": 62641,
  "name": "FLOCK 4G-27",
  "history": [
    {
      "epoch": "2026-03-28T22:46:25.261536Z",
      "apogee_km": 484.0357389919527,
      "perigee_km": 481.49816505625677,
      "latitude_deg": 3.2541428821107515e-06,
      "longitude_deg": 1.9338252764197092,
      "height_km": 487.1287736198135,
      "semi_major_axis_km": 6860.903952024104,
      "eccentricity": 0.00018493,
      "inclination_deg": 97.3961,
      "raan_deg": 169.9011,
      "arg_perigee_deg": 186.6643,
      "mean_anomaly_deg": 173.4572,
      "mean_motion_rev_day": 15.2767423
    },
    {
      "epoch": "2026-03-29T05:03:42.342336Z",
      "apogee_km": 484.0075526804094,
      "perigee_km": 481.45393770564806,
      "latitude_deg": 5.920058674722024e-05,
      "longitude_deg": -92.385694045756,
      "height_km": 487.10222674251503,
      "semi_major_axis_km": 6860.867745193028,
      "eccentricity": 0.0001861,
      "inclination_deg": 97.3961,
      "raan_deg": 170.161,
      "arg_perigee_deg": 185.9654,
      "mean_anomaly_deg": 174.1564,
      "mean_motion_rev_day": 15.27686323
    },
    {
      "epoch": "2026-03-30T04:38:30.476256Z",
      "apogee_km": 483.98300120433214,
      "perigee_km": 481.3155275047511,
      "latitude_deg": 4.3014666858295436e-05,
      "longitude_deg": -86.07994704902995,
      "height_km": 487.08313658765803,
      "semi_major_axis_km": 6860.786264354541,
      "eccentricity": 0.0001944,
      "inclination_deg": 97.396,
      "raan_deg": 171.1357,
      "arg_perigee_deg": 182.5815,
      "mean_anomaly_deg": 177.5415,
      "mean_motion_rev_day": 15.27713538
    },
    {
      "epoch": "2026-03-30T04:38:30.477120Z",
      "apogee_km": 483.983069812195,
      "perigee_km": 481.31545889688823,
      "latitude_deg": 4.304809108898145e-05,
      "longitude_deg": -86.07995066320336,
      "height_km": 487.0832051434401,
      "semi_major_axis_km": 6860.786264354541,
      "eccentricity": 0.00019441,
      "inclination_deg": 97.396,
      "raan_deg": 171.1357,
      "arg_perigee_deg": 182.5815,
      "mean_anomaly_deg": 177.5415,
      "mean_motion_rev_day": 15.27713538
    },
    {
      "epoch": "2026-03-30T18:47:22.594560Z",
      "apogee_km": 483.96168676113484,
      "perigee_km": 481.2324867414245,
      "latitude_deg": -3.8386603323466755e-05,
      "longitude_deg": 61.706574603391246,
      "height_km": 487.06095227806344,
      "semi_major_axis_km": 6860.734086751279,
      "eccentricity": 0.0001989,
      "inclination_deg": 97.3961,
      "raan_deg": 171.7204,
      "arg_perigee_deg": 183.3287,
      "mean_anomaly_deg": 176.7939,
      "mean_motion_rev_day": 15.27730966
    },
    {
      "epoch": "2026-03-31T12:04:52.266144Z",
      "apogee_km": 483.94707516382823,
      "perigee_km": 481.1410566078812,
      "latitude_deg": 5.0490098222186995e-05,
      "longitude_deg": 162.33759271826546,
      "height_km": 487.0484986806307,
      "semi_major_axis_km": 6860.681065885855,
      "eccentricity": 0.0002045,
      "inclination_deg": 97.396,
      "raan_deg": 172.4352,
      "arg_perigee_deg": 180.036,
      "mean_anomaly_deg": 180.088,
      "mean_motion_rev_day": 15.27748676
    }
  ]
}